{"type":"FeatureCollection","features":[{"type":"Feature","geometry":{"type":"MultiPolygon","coordinates":[[[[120.890811,15.312713],[120.890215,15.312526],[120.889494,15.312312],[120.889051,15.312085],[120.888621,15.311778],[120.888164,15.311444],[120.887748,15.310895],[120.887318,15.3102],[120.886972,15.309505],[120.886625,15.308784],[120.886293,15.308155],[120.886016,15.307687],[120.885669,15.307019],[120.887414,15.30587],[120.888183,15.305395],[120.889157,15.304728],[120.889322,15.304351],[120.889431,15.30405],[120.889539,15.303916],[120.889794,15.303769],[120.890224,15.30318],[120.890489,15.30289],[120.891155,15.302406],[120.893699,15.300989],[120.895022,15.30025],[120.89573,15.299836],[120.901983,15.299099],[120.902394,15.300097],[120.902629,15.300656],[120.90202,15.303529],[120.900085,15.307951],[120.900258,15.310444],[120.900743,15.313377],[120.899801,15.313283],[120.899135,15.31315],[120.898382,15.313104],[120.897551,15.313198],[120.896913,15.313345],[120.895763,15.313505],[120.894535,15.31342],[120.893218,15.313287],[120.892415,15.313099],[120.89168,15.312979],[120.890811,15.312713]]]]},"properties":{"type":"barangay","level":"4","label":"Alua, San Isidro, Nueva Ecija, Central Luzon (Region III), PH","locale":"ph.central-luzon-region-iii.nueva-ecija.san-isidro.alua","country_id":177,"country_reference":177,"country_name":"Philippines","region_id":"6","region_reference":"3","region_name":"Central Luzon (Region III)","province_id":"55","province_reference":"55","province_name":"Nueva Ecija","city_id":"1559","city_reference":"1143","city_name":"San Isidro","barangay_id":"32709","barangay_reference":"29921","barangay_name":"Alua"}}]}