{"type":"FeatureCollection","features":[{"type":"Feature","geometry":{"type":"MultiPolygon","coordinates":[[[[120.874955,15.304893],[120.873978,15.305625],[120.871562,15.305919],[120.869909,15.30558],[120.868906,15.304715],[120.867851,15.30329],[120.866963,15.301314],[120.866383,15.299261],[120.865563,15.296838],[120.865281,15.296108],[120.864877,15.29504],[120.864525,15.294497],[120.863734,15.293767],[120.864143,15.292525],[120.865327,15.291254],[120.865449,15.29116],[120.86559,15.290849],[120.86584,15.290645],[120.866514,15.29073],[120.867371,15.290713],[120.868119,15.290295],[120.868553,15.290023],[120.868835,15.289829],[120.869152,15.289661],[120.869607,15.289096],[120.870076,15.288584],[120.870362,15.288109],[120.870608,15.287706],[120.870988,15.287297],[120.871499,15.286972],[120.871956,15.286658],[120.872367,15.286358],[120.872844,15.286147],[120.873341,15.286001],[120.874016,15.28556],[120.875393,15.284014],[120.875461,15.283928],[120.876288,15.283916],[120.876795,15.284308],[120.877069,15.284514],[120.877264,15.284706],[120.877355,15.285002],[120.877331,15.285566],[120.877292,15.285943],[120.876822,15.286903],[120.873323,15.294439],[120.874673,15.297457],[120.875861,15.299788],[120.877925,15.299378],[120.87858,15.299263],[120.87933,15.298837],[120.879942,15.298548],[120.880122,15.29849],[120.880341,15.298408],[120.880524,15.298359],[120.880638,15.298319],[120.880812,15.298256],[120.880961,15.298196],[120.881218,15.298077],[120.881502,15.297953],[120.882399,15.297549],[120.882944,15.297277],[120.884714,15.299108],[120.884035,15.300367],[120.882102,15.302048],[120.881717,15.302495],[120.88088,15.302278],[120.880106,15.302169],[120.879672,15.302247],[120.878882,15.302806],[120.877932,15.303272],[120.876824,15.304023],[120.874955,15.304893]]]]},"properties":{"type":"barangay","level":"4","label":"Calaba, San Isidro, Nueva Ecija, Central Luzon (Region III), PH","locale":"ph.central-luzon-region-iii.nueva-ecija.san-isidro.calaba","country_id":177,"country_reference":177,"country_name":"Philippines","region_id":"6","region_reference":"3","region_name":"Central Luzon (Region III)","province_id":"55","province_reference":"55","province_name":"Nueva Ecija","city_id":"1559","city_reference":"1143","city_name":"San Isidro","barangay_id":"32729","barangay_reference":"29922","barangay_name":"Calaba"}}]}