{"type":"FeatureCollection","features":[{"type":"Feature","geometry":{"type":"MultiPolygon","coordinates":[[[[120.911091,15.313407],[120.910815,15.309248],[120.910689,15.304062],[120.912905,15.304127],[120.915228,15.29814],[120.927168,15.300125],[120.927259,15.300577],[120.927362,15.300919],[120.927474,15.301559],[120.927463,15.301914],[120.927398,15.30225],[120.927335,15.302747],[120.927285,15.303071],[120.927738,15.308327],[120.926734,15.309075],[120.926275,15.310103],[120.925902,15.311608],[120.925553,15.312849],[120.924517,15.313538],[120.923914,15.313932],[120.922756,15.314357],[120.921525,15.31457],[120.920404,15.314446],[120.919301,15.314145],[120.917566,15.313538],[120.916445,15.313184],[120.91492,15.313361],[120.914387,15.313804],[120.915563,15.314287],[120.9165,15.314655],[120.91711,15.31545],[120.916774,15.316197],[120.915697,15.315827],[120.914395,15.31537],[120.913837,15.315199],[120.911726,15.314984],[120.912514,15.31364],[120.911925,15.313835],[120.911091,15.313407]]]]},"properties":{"type":"barangay","level":"4","label":"Malapit, San Isidro, Nueva Ecija, Central Luzon (Region III), PH","locale":"ph.central-luzon-region-iii.nueva-ecija.san-isidro.malapit","country_id":177,"country_reference":177,"country_name":"Philippines","region_id":"6","region_reference":"3","region_name":"Central Luzon (Region III)","province_id":"55","province_reference":"55","province_name":"Nueva Ecija","city_id":"1559","city_reference":"1143","city_name":"San Isidro","barangay_id":"32763","barangay_reference":"29923","barangay_name":"Malapit"}}]}