{"type":"FeatureCollection","features":[{"type":"Feature","geometry":{"type":"MultiPolygon","coordinates":[[[[120.914018,15.260011],[120.910952,15.258683],[120.898657,15.257488],[120.898474,15.257049],[120.898447,15.256611],[120.898474,15.256312],[120.898657,15.25586],[120.898508,15.25552],[120.898006,15.255329],[120.897599,15.255132],[120.897145,15.254825],[120.896866,15.254092],[120.89585,15.252505],[120.8964,15.251536],[120.896705,15.250921],[120.896872,15.250813],[120.8972,15.250845],[120.897537,15.250946],[120.89783,15.250842],[120.898415,15.250386],[120.898815,15.25005],[120.898959,15.249565],[120.898713,15.248891],[120.898815,15.248446],[120.899186,15.248445],[120.899832,15.248717],[120.900238,15.248616],[120.900418,15.24821],[120.899675,15.247706],[120.898949,15.247319],[120.898579,15.246731],[120.898255,15.245612],[120.89855,15.2453],[120.898878,15.245423],[120.899249,15.245598],[120.899562,15.245478],[120.899631,15.245153],[120.899451,15.244456],[120.899728,15.243994],[120.900365,15.24349],[120.900489,15.242829],[120.900698,15.242058],[120.901287,15.241829],[120.901715,15.241398],[120.901744,15.240994],[120.901734,15.240645],[120.901842,15.240268],[120.902241,15.239859],[120.90212,15.239338],[120.901891,15.23892],[120.901473,15.238641],[120.900969,15.238329],[120.900745,15.238338],[120.899952,15.238654],[120.899656,15.23863],[120.899407,15.23855],[120.899337,15.238331],[120.899459,15.237995],[120.899383,15.237605],[120.899155,15.237276],[120.898839,15.237215],[120.898511,15.237264],[120.898309,15.237178],[120.898215,15.236948],[120.898362,15.236771],[120.898604,15.236574],[120.898666,15.235946],[120.898615,15.235552],[120.898279,15.235233],[120.897965,15.235294],[120.897865,15.235557],[120.89796,15.235803],[120.897834,15.236032],[120.897474,15.236021],[120.897163,15.235848],[120.896928,15.235589],[120.897022,15.235353],[120.897254,15.235154],[120.897367,15.234839],[120.897333,15.234386],[120.897088,15.234223],[120.896806,15.234247],[120.896536,15.234373],[120.896272,15.234435],[120.896038,15.234524],[120.895705,15.234752],[120.89552,15.235048],[120.895578,15.235443],[120.895226,15.235782],[120.894843,15.235807],[120.894568,15.235622],[120.894453,15.235215],[120.894449,15.234889],[120.894422,15.234501],[120.894186,15.234031],[120.894237,15.23368],[120.894484,15.233509],[120.894844,15.233403],[120.895122,15.233295],[120.895133,15.233126],[120.894972,15.232959],[120.89461,15.232943],[120.894129,15.233166],[120.893723,15.233326],[120.893412,15.233311],[120.892914,15.233353],[120.892615,15.233394],[120.892401,15.233409],[120.89223,15.233327],[120.892149,15.233146],[120.892214,15.23294],[120.892146,15.232304],[120.89204,15.231679],[120.892073,15.231364],[120.892222,15.231163],[120.892442,15.231086],[120.892665,15.231114],[120.892745,15.231047],[120.892836,15.230898],[120.892787,15.230713],[120.892422,15.23043],[120.892136,15.230201],[120.892034,15.229864],[120.891929,15.229339],[120.891786,15.228918],[120.891692,15.228682],[120.891765,15.228562],[120.891893,15.228591],[120.892092,15.228635],[120.892239,15.228587],[120.892289,15.228472],[120.892226,15.228241],[120.892138,15.227971],[120.892182,15.227545],[120.892303,15.226997],[120.892398,15.226665],[120.892581,15.226448],[120.892797,15.226277],[120.892956,15.22593],[120.892972,15.22563],[120.892757,15.225483],[120.892414,15.225406],[120.891983,15.225399],[120.891703,15.22536],[120.891695,15.225183],[120.903726,15.219433],[120.909216,15.218461],[120.910674,15.217271],[120.910859,15.217395],[120.911005,15.217582],[120.911041,15.217693],[120.911275,15.218716],[120.911117,15.21916],[120.911214,15.219369],[120.911206,15.219923],[120.911245,15.220055],[120.911391,15.220192],[120.911537,15.220153],[120.911837,15.220136],[120.912014,15.220226],[120.912213,15.220332],[120.912508,15.220416],[120.912508,15.220561],[120.912482,15.220872],[120.912632,15.221119],[120.912915,15.221294],[120.913342,15.221437],[120.913581,15.221403],[120.913795,15.221261],[120.91419,15.221046],[120.91462,15.221081],[120.914961,15.220813],[120.915198,15.220661],[120.91532,15.220246],[120.915571,15.220079],[120.916025,15.219801],[120.916196,15.219493],[120.9165,15.219287],[120.916689,15.219383],[120.916966,15.21973],[120.917444,15.219816],[120.918012,15.220054],[120.91842,15.22024],[120.91837,15.22044],[120.918339,15.220541],[120.918262,15.220682],[120.918181,15.220838],[120.918131,15.221057],[120.918147,15.221237],[120.918486,15.221471],[120.918709,15.221624],[120.918942,15.221677],[120.919146,15.221658],[120.919437,15.221606],[120.919684,15.221557],[120.919911,15.221531],[120.920121,15.221574],[120.920252,15.22167],[120.920294,15.221838],[120.920337,15.222068],[120.920429,15.222257],[120.920558,15.222379],[120.92053,15.225505],[120.915112,15.235322],[120.914989,15.23916],[120.914609,15.241736],[120.915398,15.241861],[120.915099,15.244215],[120.914851,15.244156],[120.913988,15.247414],[120.914018,15.260011]]]]},"properties":{"type":"barangay","level":"4","label":"Mangga, San Isidro, Nueva Ecija, Central Luzon (Region III), PH","locale":"ph.central-luzon-region-iii.nueva-ecija.san-isidro.mangga","country_id":177,"country_reference":177,"country_name":"Philippines","region_id":"6","region_reference":"3","region_name":"Central Luzon (Region III)","province_id":"55","province_reference":"55","province_name":"Nueva Ecija","city_id":"1559","city_reference":"1143","city_name":"San Isidro","barangay_id":"32766","barangay_reference":"29924","barangay_name":"Mangga"}}]}