{"type":"FeatureCollection","features":[{"type":"Feature","geometry":{"type":"MultiPolygon","coordinates":[[[[120.910856,15.30985],[120.911088,15.313408],[120.911929,15.313837],[120.912512,15.313646],[120.911724,15.314985],[120.913985,15.315228],[120.916768,15.316202],[120.916594,15.316906],[120.916072,15.31694],[120.913202,15.319759],[120.910971,15.3209],[120.907143,15.320992],[120.907151,15.320531],[120.907072,15.32027],[120.906865,15.319706],[120.906777,15.319549],[120.906682,15.319288],[120.90676,15.318775],[120.906433,15.317942],[120.906509,15.317662],[120.906885,15.317428],[120.906809,15.317171],[120.906596,15.316928],[120.906535,15.3167],[120.906603,15.316406],[120.906597,15.316003],[120.906499,15.315775],[120.906214,15.315593],[120.905821,15.315468],[120.905575,15.315181],[120.904731,15.315751],[120.904584,15.315721],[120.90424,15.314288],[120.903863,15.313678],[120.9036,15.313567],[120.902934,15.3135],[120.902255,15.313473],[120.901715,15.313473],[120.901271,15.31342],[120.900731,15.313366],[120.900263,15.310436],[120.900082,15.307957],[120.902009,15.303558],[120.902623,15.300641],[120.901984,15.2991],[120.905008,15.297358],[120.915233,15.298139],[120.912895,15.304131],[120.91201,15.304095],[120.910693,15.304055],[120.910677,15.304808],[120.910856,15.30985]]]]},"properties":{"type":"barangay","level":"4","label":"Poblacion, San Isidro, Nueva Ecija, Central Luzon (Region III), PH","locale":"ph.central-luzon-region-iii.nueva-ecija.san-isidro.poblacion","country_id":177,"country_reference":177,"country_name":"Philippines","region_id":"6","region_reference":"3","region_name":"Central Luzon (Region III)","province_id":"55","province_reference":"55","province_name":"Nueva Ecija","city_id":"1559","city_reference":"1143","city_name":"San Isidro","barangay_id":"32782","barangay_reference":"29925","barangay_name":"Poblacion"}}]}