{"type":"FeatureCollection","features":[{"type":"Feature","geometry":{"type":"MultiPolygon","coordinates":[[[[120.933215,15.274277],[120.918278,15.261864],[120.914019,15.260012],[120.913986,15.247425],[120.914836,15.244163],[120.915097,15.244222],[120.915407,15.241871],[120.914594,15.241738],[120.915,15.239132],[120.915116,15.235331],[120.92053,15.225507],[120.920558,15.22238],[120.920926,15.222375],[120.921581,15.222628],[120.922138,15.222706],[120.922847,15.223012],[120.923283,15.223333],[120.923447,15.223665],[120.923826,15.22411],[120.924178,15.224618],[120.92482,15.225318],[120.925205,15.22551],[120.925475,15.22572],[120.925942,15.226199],[120.926224,15.226552],[120.9265,15.226904],[120.926763,15.227102],[120.927084,15.227214],[120.927417,15.227195],[120.927745,15.227078],[120.928007,15.226956],[120.928278,15.226927],[120.928552,15.227088],[120.928753,15.22732],[120.929003,15.227488],[120.929322,15.227676],[120.929668,15.227779],[120.93011,15.227763],[120.930641,15.227713],[120.931005,15.227605],[120.931329,15.227632],[120.931625,15.227788],[120.931848,15.228015],[120.931862,15.228219],[120.93185,15.228397],[120.931889,15.228586],[120.931996,15.22878],[120.932287,15.228928],[120.932602,15.22891],[120.932866,15.228903],[120.933213,15.22904],[120.933522,15.229189],[120.933712,15.229384],[120.933946,15.229722],[120.934181,15.230217],[120.934317,15.230674],[120.934634,15.231001],[120.935136,15.23126],[120.935622,15.231462],[120.935982,15.231809],[120.936115,15.232172],[120.936425,15.232931],[120.937002,15.233052],[120.93732,15.23348],[120.938053,15.233536],[120.939005,15.233532],[120.939389,15.233924],[120.939483,15.234348],[120.939439,15.234687],[120.93936,15.235235],[120.939366,15.235568],[120.93953,15.235768],[120.939799,15.235858],[120.94021,15.236012],[120.94026,15.23617],[120.940273,15.236379],[120.940235,15.236599],[120.940131,15.23683],[120.940055,15.237072],[120.940193,15.237373],[120.940474,15.23761],[120.940758,15.238224],[120.940844,15.238963],[120.940976,15.239743],[120.94125,15.240404],[120.941355,15.24066],[120.941523,15.240646],[120.941791,15.240684],[120.94191,15.240923],[120.941711,15.241308],[120.941245,15.241652],[120.941235,15.241786],[120.941407,15.241871],[120.94172,15.241924],[120.941743,15.242282],[120.94149,15.242372],[120.941075,15.242548],[120.940671,15.242999],[120.94056,15.243503],[120.940536,15.244023],[120.940152,15.24452],[120.939334,15.2453],[120.939239,15.246302],[120.93872,15.247685],[120.938402,15.248742],[120.93859,15.249519],[120.938711,15.250639],[120.939349,15.251664],[120.939268,15.252577],[120.939292,15.254754],[120.93867,15.254739],[120.938687,15.255705],[120.938477,15.255743],[120.938704,15.257723],[120.933215,15.274277]]]]},"properties":{"type":"barangay","level":"4","label":"Pulo, San Isidro, Nueva Ecija, Central Luzon (Region III), PH","locale":"ph.central-luzon-region-iii.nueva-ecija.san-isidro.pulo","country_id":177,"country_reference":177,"country_name":"Philippines","region_id":"6","region_reference":"3","region_name":"Central Luzon (Region III)","province_id":"55","province_reference":"55","province_name":"Nueva Ecija","city_id":"1559","city_reference":"1143","city_name":"San Isidro","barangay_id":"32783","barangay_reference":"29926","barangay_name":"Pulo"}}]}