{"type":"FeatureCollection","features":[{"type":"Feature","geometry":{"type":"MultiPolygon","coordinates":[[[[120.880231,15.298441],[120.879562,15.298704],[120.878587,15.299258],[120.875861,15.299789],[120.874723,15.29756],[120.873325,15.294436],[120.87575,15.289201],[120.87729,15.285927],[120.877358,15.285039],[120.877261,15.284702],[120.877061,15.284504],[120.876287,15.283915],[120.875468,15.283934],[120.876088,15.283054],[120.876495,15.281625],[120.876834,15.280704],[120.877941,15.278909],[120.878125,15.278266],[120.879243,15.278647],[120.87962,15.278437],[120.886325,15.284065],[120.886514,15.284213],[120.886614,15.284299],[120.886756,15.284436],[120.886863,15.284519],[120.886981,15.284623],[120.887198,15.284408],[120.887332,15.284291],[120.88741,15.284226],[120.887487,15.284151],[120.887547,15.284093],[120.887645,15.284002],[120.88775,15.283927],[120.887904,15.283904],[120.892234,15.285128],[120.892428,15.285198],[120.892644,15.285429],[120.892894,15.285939],[120.893151,15.286255],[120.893661,15.286817],[120.893779,15.287169],[120.893789,15.287481],[120.893688,15.287749],[120.893569,15.288003],[120.893496,15.288125],[120.893403,15.288317],[120.888498,15.291023],[120.885971,15.292106],[120.884356,15.293713],[120.883844,15.294724],[120.883545,15.295481],[120.883681,15.295991],[120.883586,15.296532],[120.883294,15.297122],[120.882948,15.297279],[120.882358,15.297564],[120.881769,15.297822],[120.880813,15.298257],[120.880231,15.298441]]]]},"properties":{"type":"barangay","level":"4","label":"San Roque, San Isidro, Nueva Ecija, Central Luzon (Region III), PH","locale":"ph.central-luzon-region-iii.nueva-ecija.san-isidro.san-roque","country_id":177,"country_reference":177,"country_name":"Philippines","region_id":"6","region_reference":"3","region_name":"Central Luzon (Region III)","province_id":"55","province_reference":"55","province_name":"Nueva Ecija","city_id":"1559","city_reference":"1143","city_name":"San Isidro","barangay_id":"32797","barangay_reference":"29927","barangay_name":"San Roque"}}]}