{"type":"FeatureCollection","features":[{"type":"Feature","geometry":{"type":"MultiPolygon","coordinates":[[[[120.914018,15.260011],[120.910952,15.258683],[120.898657,15.257488],[120.898474,15.257049],[120.898447,15.256611],[120.898474,15.256312],[120.898657,15.25586],[120.898508,15.25552],[120.898006,15.255329],[120.897599,15.255132],[120.897145,15.254825],[120.896866,15.254092],[120.89585,15.252505],[120.8964,15.251536],[120.896705,15.250921],[120.896872,15.250813],[120.8972,15.250845],[120.897537,15.250946],[120.89783,15.250842],[120.898415,15.250386],[120.898815,15.25005],[120.898959,15.249565],[120.898713,15.248891],[120.898815,15.248446],[120.899186,15.248445],[120.899832,15.248717],[120.900238,15.248616],[120.900418,15.24821],[120.899675,15.247706],[120.898949,15.247319],[120.898579,15.246731],[120.898255,15.245612],[120.89855,15.2453],[120.898878,15.245423],[120.899249,15.245598],[120.899562,15.245478],[120.899631,15.245153],[120.899451,15.244456],[120.899728,15.243994],[120.900365,15.24349],[120.900489,15.242829],[120.900698,15.242058],[120.901287,15.241829],[120.901715,15.241398],[120.901744,15.240994],[120.901734,15.240645],[120.901842,15.240268],[120.902241,15.239859],[120.90212,15.239338],[120.901891,15.23892],[120.901473,15.238641],[120.900969,15.238329],[120.900745,15.238338],[120.899952,15.238654],[120.899656,15.23863],[120.899407,15.23855],[120.899337,15.238331],[120.899459,15.237995],[120.899383,15.237605],[120.899155,15.237276],[120.898839,15.237215],[120.898511,15.237264],[120.898309,15.237178],[120.898215,15.236948],[120.898362,15.236771],[120.898604,15.236574],[120.898666,15.235946],[120.898615,15.235552],[120.898279,15.235233],[120.897965,15.235294],[120.897865,15.235557],[120.89796,15.235803],[120.897834,15.236032],[120.897474,15.236021],[120.897163,15.235848],[120.896928,15.235589],[120.897022,15.235353],[120.897254,15.235154],[120.897367,15.234839],[120.897333,15.234386],[120.897088,15.234223],[120.896806,15.234247],[120.896536,15.234373],[120.896272,15.234435],[120.896038,15.234524],[120.895705,15.234752],[120.89552,15.235048],[120.895578,15.235443],[120.895226,15.235782],[120.894843,15.235807],[120.894568,15.235622],[120.894453,15.235215],[120.894449,15.234889],[120.894422,15.234501],[120.894186,15.234031],[120.894237,15.23368],[120.894484,15.233509],[120.894844,15.233403],[120.895122,15.233295],[120.895133,15.233126],[120.894972,15.232959],[120.89461,15.232943],[120.894129,15.233166],[120.893723,15.233326],[120.893412,15.233311],[120.892914,15.233353],[120.892615,15.233394],[120.892401,15.233409],[120.89223,15.233327],[120.892149,15.233146],[120.892214,15.23294],[120.892146,15.232304],[120.89204,15.231679],[120.892073,15.231364],[120.892222,15.231163],[120.892442,15.231086],[120.892665,15.231114],[120.892745,15.231047],[120.892836,15.230898],[120.892787,15.230713],[120.892422,15.23043],[120.892136,15.230201],[120.892034,15.229864],[120.891929,15.229339],[120.891786,15.228918],[120.891692,15.228682],[120.891765,15.228562],[120.891893,15.228591],[120.892092,15.228635],[120.892239,15.228587],[120.892289,15.228472],[120.892226,15.228241],[120.892138,15.227971],[120.892182,15.227545],[120.892303,15.226997],[120.892398,15.226665],[120.892581,15.226448],[120.892797,15.226277],[120.892956,15.22593],[120.892972,15.22563],[120.892757,15.225483],[120.892414,15.225406],[120.891983,15.225399],[120.891703,15.22536],[120.891695,15.225183],[120.903726,15.219433],[120.909216,15.218461],[120.910674,15.217271],[120.910859,15.217395],[120.911005,15.217582],[120.911041,15.217693],[120.911275,15.218716],[120.911117,15.21916],[120.911214,15.219369],[120.911206,15.219923],[120.911245,15.220055],[120.911391,15.220192],[120.911537,15.220153],[120.911837,15.220136],[120.912014,15.220226],[120.912213,15.220332],[120.912508,15.220416],[120.912508,15.220561],[120.912482,15.220872],[120.912632,15.221119],[120.912915,15.221294],[120.913342,15.221437],[120.913581,15.221403],[120.913795,15.221261],[120.91419,15.221046],[120.91462,15.221081],[120.914961,15.220813],[120.915198,15.220661],[120.91532,15.220246],[120.915571,15.220079],[120.916025,15.219801],[120.916196,15.219493],[120.9165,15.219287],[120.916689,15.219383],[120.916966,15.21973],[120.917444,15.219816],[120.918012,15.220054],[120.91842,15.22024],[120.91837,15.22044],[120.918339,15.220541],[120.918262,15.220682],[120.918181,15.220838],[120.918131,15.221057],[120.918147,15.221237],[120.918486,15.221471],[120.918709,15.221624],[120.918942,15.221677],[120.919146,15.221658],[120.919437,15.221606],[120.919684,15.221557],[120.919911,15.221531],[120.920121,15.221574],[120.920252,15.22167],[120.920294,15.221838],[120.920337,15.222068],[120.920429,15.222257],[120.920558,15.222379],[120.92053,15.225505],[120.915112,15.235322],[120.914989,15.23916],[120.914609,15.241736],[120.915398,15.241861],[120.915099,15.244215],[120.914851,15.244156],[120.913988,15.247414],[120.914018,15.260011]]]]},"properties":{"type":"barangay","level":"4","label":"Mangga, San Isidro, Nueva Ecija, Central Luzon (Region III), PH","locale":"ph.central-luzon-region-iii.nueva-ecija.san-isidro.mangga","country_id":177,"country_reference":177,"country_name":"Philippines","region_id":"6","region_reference":"3","region_name":"Central Luzon (Region III)","province_id":"55","province_reference":"55","province_name":"Nueva Ecija","city_id":"1559","city_reference":"1143","city_name":"San Isidro","barangay_id":"32766","barangay_reference":"29924","barangay_name":"Mangga"}},{"type":"Feature","geometry":{"type":"MultiPolygon","coordinates":[[[[120.933215,15.274277],[120.918278,15.261864],[120.914019,15.260012],[120.913986,15.247425],[120.914836,15.244163],[120.915097,15.244222],[120.915407,15.241871],[120.914594,15.241738],[120.915,15.239132],[120.915116,15.235331],[120.92053,15.225507],[120.920558,15.22238],[120.920926,15.222375],[120.921581,15.222628],[120.922138,15.222706],[120.922847,15.223012],[120.923283,15.223333],[120.923447,15.223665],[120.923826,15.22411],[120.924178,15.224618],[120.92482,15.225318],[120.925205,15.22551],[120.925475,15.22572],[120.925942,15.226199],[120.926224,15.226552],[120.9265,15.226904],[120.926763,15.227102],[120.927084,15.227214],[120.927417,15.227195],[120.927745,15.227078],[120.928007,15.226956],[120.928278,15.226927],[120.928552,15.227088],[120.928753,15.22732],[120.929003,15.227488],[120.929322,15.227676],[120.929668,15.227779],[120.93011,15.227763],[120.930641,15.227713],[120.931005,15.227605],[120.931329,15.227632],[120.931625,15.227788],[120.931848,15.228015],[120.931862,15.228219],[120.93185,15.228397],[120.931889,15.228586],[120.931996,15.22878],[120.932287,15.228928],[120.932602,15.22891],[120.932866,15.228903],[120.933213,15.22904],[120.933522,15.229189],[120.933712,15.229384],[120.933946,15.229722],[120.934181,15.230217],[120.934317,15.230674],[120.934634,15.231001],[120.935136,15.23126],[120.935622,15.231462],[120.935982,15.231809],[120.936115,15.232172],[120.936425,15.232931],[120.937002,15.233052],[120.93732,15.23348],[120.938053,15.233536],[120.939005,15.233532],[120.939389,15.233924],[120.939483,15.234348],[120.939439,15.234687],[120.93936,15.235235],[120.939366,15.235568],[120.93953,15.235768],[120.939799,15.235858],[120.94021,15.236012],[120.94026,15.23617],[120.940273,15.236379],[120.940235,15.236599],[120.940131,15.23683],[120.940055,15.237072],[120.940193,15.237373],[120.940474,15.23761],[120.940758,15.238224],[120.940844,15.238963],[120.940976,15.239743],[120.94125,15.240404],[120.941355,15.24066],[120.941523,15.240646],[120.941791,15.240684],[120.94191,15.240923],[120.941711,15.241308],[120.941245,15.241652],[120.941235,15.241786],[120.941407,15.241871],[120.94172,15.241924],[120.941743,15.242282],[120.94149,15.242372],[120.941075,15.242548],[120.940671,15.242999],[120.94056,15.243503],[120.940536,15.244023],[120.940152,15.24452],[120.939334,15.2453],[120.939239,15.246302],[120.93872,15.247685],[120.938402,15.248742],[120.93859,15.249519],[120.938711,15.250639],[120.939349,15.251664],[120.939268,15.252577],[120.939292,15.254754],[120.93867,15.254739],[120.938687,15.255705],[120.938477,15.255743],[120.938704,15.257723],[120.933215,15.274277]]]]},"properties":{"type":"barangay","level":"4","label":"Pulo, San Isidro, Nueva Ecija, Central Luzon (Region III), PH","locale":"ph.central-luzon-region-iii.nueva-ecija.san-isidro.pulo","country_id":177,"country_reference":177,"country_name":"Philippines","region_id":"6","region_reference":"3","region_name":"Central Luzon (Region III)","province_id":"55","province_reference":"55","province_name":"Nueva Ecija","city_id":"1559","city_reference":"1143","city_name":"San Isidro","barangay_id":"32783","barangay_reference":"29926","barangay_name":"Pulo"}},{"type":"Feature","geometry":{"type":"MultiPolygon","coordinates":[[[[120.933217,15.274269],[120.927165,15.30013],[120.915241,15.298137],[120.904999,15.297362],[120.90197,15.299105],[120.901328,15.29755],[120.900742,15.296169],[120.900757,15.295646],[120.901302,15.293394],[120.901593,15.292187],[120.901372,15.291469],[120.901043,15.290459],[120.900536,15.289539],[120.900315,15.2889],[120.899789,15.287444],[120.899738,15.28579],[120.898655,15.283024],[120.897852,15.282459],[120.904884,15.27685],[120.904514,15.27649],[120.903614,15.275776],[120.903464,15.275282],[120.903411,15.274704],[120.903546,15.273846],[120.903885,15.273366],[120.904317,15.272275],[120.904486,15.271816],[120.904371,15.271581],[120.904093,15.271297],[120.903505,15.270737],[120.90328,15.270488],[120.902291,15.268951],[120.901992,15.268611],[120.901652,15.268438],[120.90022,15.268032],[120.899056,15.267686],[120.898769,15.267514],[120.89858,15.267234],[120.89846,15.266889],[120.898424,15.266589],[120.89855,15.266232],[120.898824,15.265961],[120.898956,15.265673],[120.899135,15.265158],[120.899337,15.264261],[120.89954,15.263887],[120.899758,15.263725],[120.900344,15.26353],[120.900754,15.263366],[120.901202,15.263171],[120.901629,15.263224],[120.90225,15.262631],[120.9025,15.261886],[120.90223,15.261354],[120.901162,15.260245],[120.899687,15.258938],[120.899338,15.258432],[120.899044,15.258134],[120.898648,15.257484],[120.910942,15.25868],[120.918283,15.261865],[120.933217,15.274269]]]]},"properties":{"type":"barangay","level":"4","label":"Tabon, San Isidro, Nueva Ecija, Central Luzon (Region III), PH","locale":"ph.central-luzon-region-iii.nueva-ecija.san-isidro.tabon","country_id":177,"country_reference":177,"country_name":"Philippines","region_id":"6","region_reference":"3","region_name":"Central Luzon (Region III)","province_id":"55","province_reference":"55","province_name":"Nueva Ecija","city_id":"1559","city_reference":"1143","city_name":"San Isidro","barangay_id":"32805","barangay_reference":"29929","barangay_name":"Tabon"}},{"type":"Feature","geometry":{"type":"MultiPolygon","coordinates":[[[[120.911091,15.313407],[120.910815,15.309248],[120.910689,15.304062],[120.912905,15.304127],[120.915228,15.29814],[120.927168,15.300125],[120.927259,15.300577],[120.927362,15.300919],[120.927474,15.301559],[120.927463,15.301914],[120.927398,15.30225],[120.927335,15.302747],[120.927285,15.303071],[120.927738,15.308327],[120.926734,15.309075],[120.926275,15.310103],[120.925902,15.311608],[120.925553,15.312849],[120.924517,15.313538],[120.923914,15.313932],[120.922756,15.314357],[120.921525,15.31457],[120.920404,15.314446],[120.919301,15.314145],[120.917566,15.313538],[120.916445,15.313184],[120.91492,15.313361],[120.914387,15.313804],[120.915563,15.314287],[120.9165,15.314655],[120.91711,15.31545],[120.916774,15.316197],[120.915697,15.315827],[120.914395,15.31537],[120.913837,15.315199],[120.911726,15.314984],[120.912514,15.31364],[120.911925,15.313835],[120.911091,15.313407]]]]},"properties":{"type":"barangay","level":"4","label":"Malapit, San Isidro, Nueva Ecija, Central Luzon (Region III), PH","locale":"ph.central-luzon-region-iii.nueva-ecija.san-isidro.malapit","country_id":177,"country_reference":177,"country_name":"Philippines","region_id":"6","region_reference":"3","region_name":"Central Luzon (Region III)","province_id":"55","province_reference":"55","province_name":"Nueva Ecija","city_id":"1559","city_reference":"1143","city_name":"San Isidro","barangay_id":"32763","barangay_reference":"29923","barangay_name":"Malapit"}},{"type":"Feature","geometry":{"type":"MultiPolygon","coordinates":[[[[120.910856,15.30985],[120.911088,15.313408],[120.911929,15.313837],[120.912512,15.313646],[120.911724,15.314985],[120.913985,15.315228],[120.916768,15.316202],[120.916594,15.316906],[120.916072,15.31694],[120.913202,15.319759],[120.910971,15.3209],[120.907143,15.320992],[120.907151,15.320531],[120.907072,15.32027],[120.906865,15.319706],[120.906777,15.319549],[120.906682,15.319288],[120.90676,15.318775],[120.906433,15.317942],[120.906509,15.317662],[120.906885,15.317428],[120.906809,15.317171],[120.906596,15.316928],[120.906535,15.3167],[120.906603,15.316406],[120.906597,15.316003],[120.906499,15.315775],[120.906214,15.315593],[120.905821,15.315468],[120.905575,15.315181],[120.904731,15.315751],[120.904584,15.315721],[120.90424,15.314288],[120.903863,15.313678],[120.9036,15.313567],[120.902934,15.3135],[120.902255,15.313473],[120.901715,15.313473],[120.901271,15.31342],[120.900731,15.313366],[120.900263,15.310436],[120.900082,15.307957],[120.902009,15.303558],[120.902623,15.300641],[120.901984,15.2991],[120.905008,15.297358],[120.915233,15.298139],[120.912895,15.304131],[120.91201,15.304095],[120.910693,15.304055],[120.910677,15.304808],[120.910856,15.30985]]]]},"properties":{"type":"barangay","level":"4","label":"Poblacion, San Isidro, Nueva Ecija, Central Luzon (Region III), PH","locale":"ph.central-luzon-region-iii.nueva-ecija.san-isidro.poblacion","country_id":177,"country_reference":177,"country_name":"Philippines","region_id":"6","region_reference":"3","region_name":"Central Luzon (Region III)","province_id":"55","province_reference":"55","province_name":"Nueva Ecija","city_id":"1559","city_reference":"1143","city_name":"San Isidro","barangay_id":"32782","barangay_reference":"29925","barangay_name":"Poblacion"}},{"type":"Feature","geometry":{"type":"MultiPolygon","coordinates":[[[[120.890811,15.312713],[120.890215,15.312526],[120.889494,15.312312],[120.889051,15.312085],[120.888621,15.311778],[120.888164,15.311444],[120.887748,15.310895],[120.887318,15.3102],[120.886972,15.309505],[120.886625,15.308784],[120.886293,15.308155],[120.886016,15.307687],[120.885669,15.307019],[120.887414,15.30587],[120.888183,15.305395],[120.889157,15.304728],[120.889322,15.304351],[120.889431,15.30405],[120.889539,15.303916],[120.889794,15.303769],[120.890224,15.30318],[120.890489,15.30289],[120.891155,15.302406],[120.893699,15.300989],[120.895022,15.30025],[120.89573,15.299836],[120.901983,15.299099],[120.902394,15.300097],[120.902629,15.300656],[120.90202,15.303529],[120.900085,15.307951],[120.900258,15.310444],[120.900743,15.313377],[120.899801,15.313283],[120.899135,15.31315],[120.898382,15.313104],[120.897551,15.313198],[120.896913,15.313345],[120.895763,15.313505],[120.894535,15.31342],[120.893218,15.313287],[120.892415,15.313099],[120.89168,15.312979],[120.890811,15.312713]]]]},"properties":{"type":"barangay","level":"4","label":"Alua, San Isidro, Nueva Ecija, Central Luzon (Region III), PH","locale":"ph.central-luzon-region-iii.nueva-ecija.san-isidro.alua","country_id":177,"country_reference":177,"country_name":"Philippines","region_id":"6","region_reference":"3","region_name":"Central Luzon (Region III)","province_id":"55","province_reference":"55","province_name":"Nueva Ecija","city_id":"1559","city_reference":"1143","city_name":"San Isidro","barangay_id":"32709","barangay_reference":"29921","barangay_name":"Alua"}},{"type":"Feature","geometry":{"type":"MultiPolygon","coordinates":[[[[120.885657,15.307017],[120.884503,15.305194],[120.884087,15.304673],[120.883616,15.304191],[120.882951,15.303523],[120.882475,15.302945],[120.88172,15.302494],[120.882179,15.301968],[120.882877,15.301388],[120.884018,15.300378],[120.884718,15.299116],[120.882948,15.297282],[120.883298,15.297124],[120.883595,15.296526],[120.88368,15.295991],[120.883552,15.295495],[120.883801,15.294829],[120.88436,15.293712],[120.885286,15.292786],[120.885973,15.292112],[120.887103,15.291622],[120.888438,15.29105],[120.893406,15.288319],[120.8935,15.288127],[120.893623,15.287886],[120.893707,15.287709],[120.89379,15.287476],[120.893782,15.287238],[120.893779,15.287187],[120.897854,15.282452],[120.898637,15.283019],[120.899042,15.284087],[120.899734,15.285803],[120.899786,15.286116],[120.899786,15.286606],[120.899793,15.287437],[120.900543,15.289555],[120.901043,15.290474],[120.901586,15.292151],[120.901075,15.294394],[120.900767,15.295583],[120.90073,15.296164],[120.900862,15.296482],[120.901985,15.299095],[120.901397,15.29918],[120.900475,15.299319],[120.899065,15.299479],[120.897423,15.299623],[120.895738,15.29984],[120.893693,15.300996],[120.89117,15.302394],[120.890483,15.302892],[120.890235,15.303177],[120.889802,15.303765],[120.889536,15.303922],[120.889424,15.304072],[120.889318,15.304359],[120.889156,15.304728],[120.88815,15.305414],[120.887505,15.30581],[120.885657,15.307017]]]]},"properties":{"type":"barangay","level":"4","label":"Santo Cristo, San Isidro, Nueva Ecija, Central Luzon (Region III), PH","locale":"ph.central-luzon-region-iii.nueva-ecija.san-isidro.santo-cristo","country_id":177,"country_reference":177,"country_name":"Philippines","region_id":"6","region_reference":"3","region_name":"Central Luzon (Region III)","province_id":"55","province_reference":"55","province_name":"Nueva Ecija","city_id":"1559","city_reference":"1143","city_name":"San Isidro","barangay_id":"32799","barangay_reference":"29928","barangay_name":"Santo Cristo"}},{"type":"Feature","geometry":{"type":"MultiPolygon","coordinates":[[[[120.880231,15.298441],[120.879562,15.298704],[120.878587,15.299258],[120.875861,15.299789],[120.874723,15.29756],[120.873325,15.294436],[120.87575,15.289201],[120.87729,15.285927],[120.877358,15.285039],[120.877261,15.284702],[120.877061,15.284504],[120.876287,15.283915],[120.875468,15.283934],[120.876088,15.283054],[120.876495,15.281625],[120.876834,15.280704],[120.877941,15.278909],[120.878125,15.278266],[120.879243,15.278647],[120.87962,15.278437],[120.886325,15.284065],[120.886514,15.284213],[120.886614,15.284299],[120.886756,15.284436],[120.886863,15.284519],[120.886981,15.284623],[120.887198,15.284408],[120.887332,15.284291],[120.88741,15.284226],[120.887487,15.284151],[120.887547,15.284093],[120.887645,15.284002],[120.88775,15.283927],[120.887904,15.283904],[120.892234,15.285128],[120.892428,15.285198],[120.892644,15.285429],[120.892894,15.285939],[120.893151,15.286255],[120.893661,15.286817],[120.893779,15.287169],[120.893789,15.287481],[120.893688,15.287749],[120.893569,15.288003],[120.893496,15.288125],[120.893403,15.288317],[120.888498,15.291023],[120.885971,15.292106],[120.884356,15.293713],[120.883844,15.294724],[120.883545,15.295481],[120.883681,15.295991],[120.883586,15.296532],[120.883294,15.297122],[120.882948,15.297279],[120.882358,15.297564],[120.881769,15.297822],[120.880813,15.298257],[120.880231,15.298441]]]]},"properties":{"type":"barangay","level":"4","label":"San Roque, San Isidro, Nueva Ecija, Central Luzon (Region III), PH","locale":"ph.central-luzon-region-iii.nueva-ecija.san-isidro.san-roque","country_id":177,"country_reference":177,"country_name":"Philippines","region_id":"6","region_reference":"3","region_name":"Central Luzon (Region III)","province_id":"55","province_reference":"55","province_name":"Nueva Ecija","city_id":"1559","city_reference":"1143","city_name":"San Isidro","barangay_id":"32797","barangay_reference":"29927","barangay_name":"San Roque"}},{"type":"Feature","geometry":{"type":"MultiPolygon","coordinates":[[[[120.874955,15.304893],[120.873978,15.305625],[120.871562,15.305919],[120.869909,15.30558],[120.868906,15.304715],[120.867851,15.30329],[120.866963,15.301314],[120.866383,15.299261],[120.865563,15.296838],[120.865281,15.296108],[120.864877,15.29504],[120.864525,15.294497],[120.863734,15.293767],[120.864143,15.292525],[120.865327,15.291254],[120.865449,15.29116],[120.86559,15.290849],[120.86584,15.290645],[120.866514,15.29073],[120.867371,15.290713],[120.868119,15.290295],[120.868553,15.290023],[120.868835,15.289829],[120.869152,15.289661],[120.869607,15.289096],[120.870076,15.288584],[120.870362,15.288109],[120.870608,15.287706],[120.870988,15.287297],[120.871499,15.286972],[120.871956,15.286658],[120.872367,15.286358],[120.872844,15.286147],[120.873341,15.286001],[120.874016,15.28556],[120.875393,15.284014],[120.875461,15.283928],[120.876288,15.283916],[120.876795,15.284308],[120.877069,15.284514],[120.877264,15.284706],[120.877355,15.285002],[120.877331,15.285566],[120.877292,15.285943],[120.876822,15.286903],[120.873323,15.294439],[120.874673,15.297457],[120.875861,15.299788],[120.877925,15.299378],[120.87858,15.299263],[120.87933,15.298837],[120.879942,15.298548],[120.880122,15.29849],[120.880341,15.298408],[120.880524,15.298359],[120.880638,15.298319],[120.880812,15.298256],[120.880961,15.298196],[120.881218,15.298077],[120.881502,15.297953],[120.882399,15.297549],[120.882944,15.297277],[120.884714,15.299108],[120.884035,15.300367],[120.882102,15.302048],[120.881717,15.302495],[120.88088,15.302278],[120.880106,15.302169],[120.879672,15.302247],[120.878882,15.302806],[120.877932,15.303272],[120.876824,15.304023],[120.874955,15.304893]]]]},"properties":{"type":"barangay","level":"4","label":"Calaba, San Isidro, Nueva Ecija, Central Luzon (Region III), PH","locale":"ph.central-luzon-region-iii.nueva-ecija.san-isidro.calaba","country_id":177,"country_reference":177,"country_name":"Philippines","region_id":"6","region_reference":"3","region_name":"Central Luzon (Region III)","province_id":"55","province_reference":"55","province_name":"Nueva Ecija","city_id":"1559","city_reference":"1143","city_name":"San Isidro","barangay_id":"32729","barangay_reference":"29922","barangay_name":"Calaba"}}]}