{"type":"FeatureCollection","features":[{"type":"Feature","geometry":{"type":"MultiPolygon","coordinates":[[[[120.885657,15.307017],[120.884503,15.305194],[120.884087,15.304673],[120.883616,15.304191],[120.882951,15.303523],[120.882475,15.302945],[120.88172,15.302494],[120.882179,15.301968],[120.882877,15.301388],[120.884018,15.300378],[120.884718,15.299116],[120.882948,15.297282],[120.883298,15.297124],[120.883595,15.296526],[120.88368,15.295991],[120.883552,15.295495],[120.883801,15.294829],[120.88436,15.293712],[120.885286,15.292786],[120.885973,15.292112],[120.887103,15.291622],[120.888438,15.29105],[120.893406,15.288319],[120.8935,15.288127],[120.893623,15.287886],[120.893707,15.287709],[120.89379,15.287476],[120.893782,15.287238],[120.893779,15.287187],[120.897854,15.282452],[120.898637,15.283019],[120.899042,15.284087],[120.899734,15.285803],[120.899786,15.286116],[120.899786,15.286606],[120.899793,15.287437],[120.900543,15.289555],[120.901043,15.290474],[120.901586,15.292151],[120.901075,15.294394],[120.900767,15.295583],[120.90073,15.296164],[120.900862,15.296482],[120.901985,15.299095],[120.901397,15.29918],[120.900475,15.299319],[120.899065,15.299479],[120.897423,15.299623],[120.895738,15.29984],[120.893693,15.300996],[120.89117,15.302394],[120.890483,15.302892],[120.890235,15.303177],[120.889802,15.303765],[120.889536,15.303922],[120.889424,15.304072],[120.889318,15.304359],[120.889156,15.304728],[120.88815,15.305414],[120.887505,15.30581],[120.885657,15.307017]]]]},"properties":{"type":"barangay","level":"4","label":"Santo Cristo, San Isidro, Nueva Ecija, Central Luzon (Region III), PH","locale":"ph.central-luzon-region-iii.nueva-ecija.san-isidro.santo-cristo","country_id":177,"country_reference":177,"country_name":"Philippines","region_id":"6","region_reference":"3","region_name":"Central Luzon (Region III)","province_id":"55","province_reference":"55","province_name":"Nueva Ecija","city_id":"1559","city_reference":"1143","city_name":"San Isidro","barangay_id":"32799","barangay_reference":"29928","barangay_name":"Santo Cristo"}}]}