{"type":"FeatureCollection","features":[{"type":"Feature","geometry":{"type":"MultiPolygon","coordinates":[[[[120.933217,15.274269],[120.927165,15.30013],[120.915241,15.298137],[120.904999,15.297362],[120.90197,15.299105],[120.901328,15.29755],[120.900742,15.296169],[120.900757,15.295646],[120.901302,15.293394],[120.901593,15.292187],[120.901372,15.291469],[120.901043,15.290459],[120.900536,15.289539],[120.900315,15.2889],[120.899789,15.287444],[120.899738,15.28579],[120.898655,15.283024],[120.897852,15.282459],[120.904884,15.27685],[120.904514,15.27649],[120.903614,15.275776],[120.903464,15.275282],[120.903411,15.274704],[120.903546,15.273846],[120.903885,15.273366],[120.904317,15.272275],[120.904486,15.271816],[120.904371,15.271581],[120.904093,15.271297],[120.903505,15.270737],[120.90328,15.270488],[120.902291,15.268951],[120.901992,15.268611],[120.901652,15.268438],[120.90022,15.268032],[120.899056,15.267686],[120.898769,15.267514],[120.89858,15.267234],[120.89846,15.266889],[120.898424,15.266589],[120.89855,15.266232],[120.898824,15.265961],[120.898956,15.265673],[120.899135,15.265158],[120.899337,15.264261],[120.89954,15.263887],[120.899758,15.263725],[120.900344,15.26353],[120.900754,15.263366],[120.901202,15.263171],[120.901629,15.263224],[120.90225,15.262631],[120.9025,15.261886],[120.90223,15.261354],[120.901162,15.260245],[120.899687,15.258938],[120.899338,15.258432],[120.899044,15.258134],[120.898648,15.257484],[120.910942,15.25868],[120.918283,15.261865],[120.933217,15.274269]]]]},"properties":{"type":"barangay","level":"4","label":"Tabon, San Isidro, Nueva Ecija, Central Luzon (Region III), PH","locale":"ph.central-luzon-region-iii.nueva-ecija.san-isidro.tabon","country_id":177,"country_reference":177,"country_name":"Philippines","region_id":"6","region_reference":"3","region_name":"Central Luzon (Region III)","province_id":"55","province_reference":"55","province_name":"Nueva Ecija","city_id":"1559","city_reference":"1143","city_name":"San Isidro","barangay_id":"32805","barangay_reference":"29929","barangay_name":"Tabon"}}]}