{
  "type": "FeatureCollection",
  "features": [
    {
      "type": "Feature",
      "properties": {},
      "geometry": {
        "type": "MultiPolygon",
        "coordinates": [
          [
            [
              [
                120.8637714,
                15.2935614
              ],
              [
                120.8641822,
                15.292457
              ],
              [
                120.8659863,
                15.2905448
              ],
              [
                120.8670846,
                15.2907099
              ],
              [
                120.8683212,
                15.2902348
              ],
              [
                120.8754261,
                15.2842405
              ],
              [
                120.8781716,
                15.2780237
              ],
              [
                120.8792408,
                15.2786925
              ],
              [
                120.8796141,
                15.2784041
              ],
              [
                120.8869517,
                15.284681
              ],
              [
                120.8878272,
                15.2839234
              ],
              [
                120.8924953,
                15.2851112
              ],
              [
                120.8937743,
                15.2868648
              ],
              [
                120.8938717,
                15.287228
              ],
              [
                120.8978783,
                15.2824025
              ],
              [
                120.9047364,
                15.2766577
              ],
              [
                120.9045292,
                15.2764856
              ],
              [
                120.9037592,
                15.275846
              ],
              [
                120.9036089,
                15.2756661
              ],
              [
                120.9035218,
                15.2754022
              ],
              [
                120.9034614,
                15.2750969
              ],
              [
                120.9034453,
                15.2748239
              ],
              [
                120.9034561,
                15.2745936
              ],
              [
                120.9036103,
                15.2739028
              ],
              [
                120.9038825,
                15.2735056
              ],
              [
                120.9044793,
                15.2719156
              ],
              [
                120.9045021,
                15.2717836
              ],
              [
                120.9044646,
                15.2716129
              ],
              [
                120.9043613,
                15.2714537
              ],
              [
                120.9035164,
                15.2706736
              ],
              [
                120.9033488,
                15.2704847
              ],
              [
                120.9029531,
                15.2698365
              ],
              [
                120.902127,
                15.2686928
              ],
              [
                120.9019406,
                15.2685221
              ],
              [
                120.9017099,
                15.268416
              ],
              [
                120.9012808,
                15.268292
              ],
              [
                120.8993992,
                15.2677497
              ],
              [
                120.8990787,
                15.2676384
              ],
              [
                120.8988467,
                15.2674987
              ],
              [
                120.8987193,
                15.2673577
              ],
              [
                120.8985905,
                15.2671132
              ],
              [
                120.8985047,
                15.2668466
              ],
              [
                120.8985248,
                15.2666189
              ],
              [
                120.8986603,
                15.2663589
              ],
              [
                120.8986858,
                15.2660755
              ],
              [
                120.8989003,
                15.2658621
              ],
              [
                120.8992624,
                15.2647481
              ],
              [
                120.8993992,
                15.2641271
              ],
              [
                120.8995347,
                15.2639201
              ],
              [
                120.8997023,
                15.2638011
              ],
              [
                120.9006558,
                15.263466
              ],
              [
                120.9009281,
                15.2633094
              ],
              [
                120.9011453,
                15.2631024
              ],
              [
                120.9020125,
                15.2629204
              ],
              [
                120.9023521,
                15.2616769
              ],
              [
                120.9021789,
                15.2612691
              ],
              [
                120.901278,
                15.2604201
              ],
              [
                120.9009038,
                15.2597717
              ],
              [
                120.8994278,
                15.258555
              ],
              [
                120.8985678,
                15.2579498
              ],
              [
                120.8985522,
                15.256354
              ],
              [
                120.8984484,
                15.2555931
              ],
              [
                120.8983044,
                15.255506
              ],
              [
                120.8975871,
                15.2550725
              ],
              [
                120.8970516,
                15.2545454
              ],
              [
                120.8969121,
                15.2542349
              ],
              [
                120.8966117,
                15.2537691
              ],
              [
                120.8962791,
                15.253148
              ],
              [
                120.8959358,
                15.2526719
              ],
              [
                120.8959251,
                15.2524234
              ],
              [
                120.8960646,
                15.2521336
              ],
              [
                120.8963113,
                15.2518231
              ],
              [
                120.8965044,
                15.2512124
              ],
              [
                120.8968799,
                15.2507362
              ],
              [
                120.8972876,
                15.2509019
              ],
              [
                120.8975129,
                15.250964
              ],
              [
                120.8976739,
                15.2509743
              ],
              [
                120.8978992,
                15.2508915
              ],
              [
                120.8982854,
                15.2506431
              ],
              [
                120.8985107,
                15.2503947
              ],
              [
                120.8988004,
                15.2501669
              ],
              [
                120.898897,
                15.2500013
              ],
              [
                120.8988755,
                15.2496183
              ],
              [
                120.8987897,
                15.2490801
              ],
              [
                120.8988219,
                15.2486764
              ],
              [
                120.8990043,
                15.2484901
              ],
              [
                120.8992081,
                15.2485211
              ],
              [
                120.8998304,
                15.2487385
              ],
              [
                120.9000664,
                15.2487281
              ],
              [
                120.9002381,
                15.2486039
              ],
              [
                120.9002595,
                15.2484797
              ],
              [
                120.9002166,
                15.2482727
              ],
              [
                120.8999055,
                15.2479932
              ],
              [
                120.8994656,
                15.247693
              ],
              [
                120.8989828,
                15.247279
              ],
              [
                120.8984356,
                15.2462025
              ],
              [
                120.898264,
                15.2456021
              ],
              [
                120.8984142,
                15.2453226
              ],
              [
                120.898618,
                15.2453433
              ],
              [
                120.8989184,
                15.2454468
              ],
              [
                120.8991866,
                15.2455917
              ],
              [
                120.8994656,
                15.2456952
              ],
              [
                120.8996587,
                15.2456538
              ],
              [
                120.8997875,
                15.2455296
              ],
              [
                120.8998304,
                15.2452812
              ],
              [
                120.8996265,
                15.2446187
              ],
              [
                120.8996265,
                15.2442564
              ],
              [
                120.8998518,
                15.2439666
              ],
              [
                120.9001308,
                15.2438113
              ],
              [
                120.9002917,
                15.243656
              ],
              [
                120.9004741,
                15.2434387
              ],
              [
                120.9005707,
                15.2431695
              ],
              [
                120.9006565,
                15.2429211
              ],
              [
                120.9006136,
                15.2426312
              ],
              [
                120.9006136,
                15.2424553
              ],
              [
                120.9006994,
                15.2422896
              ],
              [
                120.9008282,
                15.242124
              ],
              [
                120.9010749,
                15.2420205
              ],
              [
                120.9014933,
                15.2418135
              ],
              [
                120.9016865,
                15.241327
              ],
              [
                120.9016757,
                15.2409026
              ],
              [
                120.901665,
                15.2405817
              ],
              [
                120.9019225,
                15.2401987
              ],
              [
                120.9021674,
                15.2399103
              ],
              [
                120.9021786,
                15.2394483
              ],
              [
                120.9019965,
                15.239016
              ],
              [
                120.9011592,
                15.2384364
              ],
              [
                120.9006865,
                15.2382961
              ],
              [
                120.9002774,
                15.2384715
              ],
              [
                120.9000047,
                15.238682
              ],
              [
                120.8995138,
                15.2386996
              ],
              [
                120.8992774,
                15.2384277
              ],
              [
                120.8993229,
                15.2380418
              ],
              [
                120.8996138,
                15.2374541
              ],
              [
                120.8990684,
                15.2372436
              ],
              [
                120.8983775,
                15.2372699
              ],
              [
                120.8982048,
                15.2368577
              ],
              [
                120.898712,
                15.2364747
              ],
              [
                120.8986691,
                15.2356466
              ],
              [
                120.8985296,
                15.2353878
              ],
              [
                120.8983687,
                15.2352739
              ],
              [
                120.8980683,
                15.2352429
              ],
              [
                120.8978966,
                15.2354188
              ],
              [
                120.8978966,
                15.2357087
              ],
              [
                120.8979395,
                15.235895
              ],
              [
                120.8978859,
                15.2360399
              ],
              [
                120.8976928,
                15.236102
              ],
              [
                120.8973387,
                15.2360503
              ],
              [
                120.8970812,
                15.2358536
              ],
              [
                120.8969847,
                15.2356052
              ],
              [
                120.897049,
                15.2353257
              ],
              [
                120.8972851,
                15.2349427
              ],
              [
                120.8972851,
                15.2345493
              ],
              [
                120.8971456,
                15.2342905
              ],
              [
                120.8968237,
                15.2342801
              ],
              [
                120.8963731,
                15.2344251
              ],
              [
                120.8958581,
                15.2347253
              ],
              [
                120.8957294,
                15.234953
              ],
              [
                120.8955899,
                15.2352532
              ],
              [
                120.895665,
                15.2354809
              ],
              [
                120.8955363,
                15.235688
              ],
              [
                120.8953002,
                15.2359571
              ],
              [
                120.8951071,
                15.2360192
              ],
              [
                120.8948604,
                15.2359054
              ],
              [
                120.8945814,
                15.2357397
              ],
              [
                120.8944097,
                15.2354188
              ],
              [
                120.8943883,
                15.2350669
              ],
              [
                120.8944741,
                15.2346528
              ],
              [
                120.8944097,
                15.2343215
              ],
              [
                120.894163,
                15.2338764
              ],
              [
                120.8942824,
                15.2335942
              ],
              [
                120.8946397,
                15.2333964
              ],
              [
                120.8949559,
                15.2333269
              ],
              [
                120.8950777,
                15.2332531
              ],
              [
                120.8950872,
                15.2330918
              ],
              [
                120.8949177,
                15.2329282
              ],
              [
                120.8946813,
                15.2329052
              ],
              [
                120.8944186,
                15.2329812
              ],
              [
                120.8937553,
                15.2333485
              ],
              [
                120.8934763,
                15.233276
              ],
              [
                120.8930365,
                15.2333278
              ],
              [
                120.8926609,
                15.233483
              ],
              [
                120.8923713,
                15.2334106
              ],
              [
                120.8921567,
                15.233245
              ],
              [
                120.8921352,
                15.2329965
              ],
              [
                120.8921352,
                15.23251
              ],
              [
                120.8920709,
                15.2319613
              ],
              [
                120.8920816,
                15.2314644
              ],
              [
                120.8922103,
                15.231247
              ],
              [
                120.892382,
                15.2310918
              ],
              [
                120.8925751,
                15.231071
              ],
              [
                120.892779,
                15.2309986
              ],
              [
                120.8928111,
                15.230833
              ],
              [
                120.8927468,
                15.2305534
              ],
              [
                120.8925215,
                15.2303878
              ],
              [
                120.8922425,
                15.2304706
              ],
              [
                120.8920279,
                15.2302429
              ],
              [
                120.891867,
                15.2290938
              ],
              [
                120.8917168,
                15.2288661
              ],
              [
                120.8916417,
                15.2287211
              ],
              [
                120.8916846,
                15.228628
              ],
              [
                120.891749,
                15.2286073
              ],
              [
                120.8918885,
                15.2287315
              ],
              [
                120.8920601,
                15.2287211
              ],
              [
                120.8922103,
                15.2285762
              ],
              [
                120.8922532,
                15.2277791
              ],
              [
                120.8922747,
                15.2272511
              ],
              [
                120.8924678,
                15.2266921
              ],
              [
                120.8928755,
                15.2262263
              ],
              [
                120.8930257,
                15.2259882
              ],
              [
                120.8930579,
                15.2255844
              ],
              [
                120.8929761,
                15.225539
              ],
              [
                120.8915954,
                15.225557
              ],
              [
                120.8915767,
                15.2251592
              ],
              [
                120.9037116,
                15.219756
              ],
              [
                120.9094621,
                15.2185014
              ],
              [
                120.9107392,
                15.2173785
              ],
              [
                120.9111136,
                15.2178249
              ],
              [
                120.9113192,
                15.2186326
              ],
              [
                120.9112164,
                15.2189798
              ],
              [
                120.9111283,
                15.2193978
              ],
              [
                120.9112531,
                15.220163
              ],
              [
                120.9114955,
                15.2202268
              ],
              [
                120.9122444,
                15.2203543
              ],
              [
                120.9124427,
                15.2205243
              ],
              [
                120.9125014,
                15.2208006
              ],
              [
                120.9125381,
                15.2210415
              ],
              [
                120.9126923,
                15.2211832
              ],
              [
                120.912964,
                15.2214241
              ],
              [
                120.9135881,
                15.2215304
              ],
              [
                120.9144325,
                15.2211762
              ],
              [
                120.9151227,
                15.2208361
              ],
              [
                120.9160479,
                15.2198371
              ],
              [
                120.9164664,
                15.2196033
              ],
              [
                120.9166428,
                15.2196604
              ],
              [
                120.9175164,
                15.2199433
              ],
              [
                120.9180451,
                15.2201346
              ],
              [
                120.9184122,
                15.2202622
              ],
              [
                120.9182066,
                15.2205172
              ],
              [
                120.9180304,
                15.220829
              ],
              [
                120.9180304,
                15.2211195
              ],
              [
                120.9182066,
                15.2214383
              ],
              [
                120.9186839,
                15.2216438
              ],
              [
                120.9191979,
                15.221665
              ],
              [
                120.9197192,
                15.2215871
              ],
              [
                120.9200716,
                15.2216225
              ],
              [
                120.9203286,
                15.2221397
              ],
              [
                120.9205416,
                15.2223664
              ],
              [
                120.9210409,
                15.2224373
              ],
              [
                120.9213933,
                15.2225011
              ],
              [
                120.9222524,
                15.2228128
              ],
              [
                120.9230968,
                15.2232379
              ],
              [
                120.9237797,
                15.2240314
              ],
              [
                120.924536,
                15.2252004
              ],
              [
                120.9251234,
                15.2255334
              ],
              [
                120.9256888,
                15.2259798
              ],
              [
                120.9263055,
                15.2266245
              ],
              [
                120.9268342,
                15.2271417
              ],
              [
                120.9270233,
                15.2272637
              ],
              [
                120.9271215,
                15.2272516
              ],
              [
                120.9274659,
                15.2272094
              ],
              [
                120.9279652,
                15.2270245
              ],
              [
                120.9281794,
                15.2269816
              ],
              [
                120.9285924,
                15.2271498
              ],
              [
                120.9290001,
                15.2275458
              ],
              [
                120.9295339,
                15.2277917
              ],
              [
                120.9302478,
                15.2278112
              ],
              [
                120.9309125,
                15.2277373
              ],
              [
                120.9311647,
                15.2276545
              ],
              [
                120.9314919,
                15.2277192
              ],
              [
                120.9317548,
                15.2280013
              ],
              [
                120.9318325,
                15.2282394
              ],
              [
                120.9318647,
                15.2286017
              ],
              [
                120.9321759,
                15.2289278
              ],
              [
                120.9330342,
                15.2290055
              ],
              [
                120.9335867,
                15.2292643
              ],
              [
                120.9339729,
                15.2298259
              ],
              [
                120.9342251,
                15.2303021
              ],
              [
                120.9342921,
                15.230711
              ],
              [
                120.9345147,
                15.2308921
              ],
              [
                120.9349117,
                15.2311509
              ],
              [
                120.9354696,
                15.2313295
              ],
              [
                120.9357968,
                15.2315728
              ],
              [
                120.9361911,
                15.232419
              ],
              [
                120.936344,
                15.2327451
              ],
              [
                120.9365747,
                15.2329522
              ],
              [
                120.9368509,
                15.2329936
              ],
              [
                120.9370923,
                15.2331618
              ],
              [
                120.9372694,
                15.2333947
              ],
              [
                120.9375698,
                15.2336147
              ],
              [
                120.9382242,
                15.2335784
              ],
              [
                120.9387795,
                15.2335784
              ],
              [
                120.9391871,
                15.2337493
              ],
              [
                120.9393186,
                15.2339201
              ],
              [
                120.9393508,
                15.234052
              ],
              [
                120.9394259,
                15.2343497
              ],
              [
                120.939399,
                15.2349449
              ],
              [
                120.9393749,
                15.235271
              ],
              [
                120.939383,
                15.23561
              ],
              [
                120.9394929,
                15.2358015
              ],
              [
                120.9398738,
                15.2359723
              ],
              [
                120.9401876,
                15.2360551
              ],
              [
                120.940303,
                15.2363682
              ],
              [
                120.9402144,
                15.2365856
              ],
              [
                120.9401581,
                15.2368367
              ],
              [
                120.9401072,
                15.2371679
              ],
              [
                120.9402171,
                15.2373672
              ],
              [
                120.940421,
                15.2375846
              ],
              [
                120.9406972,
                15.2381669
              ],
              [
                120.9407777,
                15.2384049
              ],
              [
                120.940834,
                15.2389148
              ],
              [
                120.940893,
                15.2395902
              ],
              [
                120.9411157,
                15.2403381
              ],
              [
                120.9413061,
                15.2405814
              ],
              [
                120.9415046,
                15.2406719
              ],
              [
                120.9417862,
                15.2408427
              ],
              [
                120.9418613,
                15.2410782
              ],
              [
                120.9414858,
                15.2414612
              ],
              [
                120.9412723,
                15.2416763
              ],
              [
                120.9412055,
                15.2417937
              ],
              [
                120.9412039,
                15.2419078
              ],
              [
                120.9414019,
                15.2421923
              ],
              [
                120.941627,
                15.2424777
              ],
              [
                120.9414257,
                15.2426385
              ],
              [
                120.9409746,
                15.2427362
              ],
              [
                120.9407414,
                15.2428302
              ],
              [
                120.9406636,
                15.2429963
              ],
              [
                120.9405348,
                15.2433951
              ],
              [
                120.9406134,
                15.2437163
              ],
              [
                120.9404922,
                15.2440943
              ],
              [
                120.9402441,
                15.2443598
              ],
              [
                120.9401667,
                15.2444078
              ],
              [
                120.9398817,
                15.2447285
              ],
              [
                120.9392633,
                15.2452252
              ],
              [
                120.9390765,
                15.2464882
              ],
              [
                120.9385904,
                15.2476941
              ],
              [
                120.9385093,
                15.2486991
              ],
              [
                120.9387061,
                15.2503405
              ],
              [
                120.9391228,
                15.2514348
              ],
              [
                120.9394121,
                15.2519931
              ],
              [
                120.9393636,
                15.253293
              ],
              [
                120.9333561,
                15.2743992
              ],
              [
                120.9271638,
                15.300098
              ],
              [
                120.9271705,
                15.3001277
              ],
              [
                120.9271905,
                15.3002605
              ],
              [
                120.9274403,
                15.3013754
              ],
              [
                120.9274549,
                15.3016129
              ],
              [
                120.9274454,
                15.3018365
              ],
              [
                120.9274227,
                15.3021177
              ],
              [
                120.9273613,
                15.3025492
              ],
              [
                120.9272934,
                15.3031266
              ],
              [
                120.9280606,
                15.3081973
              ],
              [
                120.9270529,
                15.3088829
              ],
              [
                120.9255385,
                15.3106818
              ],
              [
                120.9248952,
                15.3121716
              ],
              [
                120.9247101,
                15.3134652
              ],
              [
                120.9241456,
                15.3139862
              ],
              [
                120.9233445,
                15.3142057
              ],
              [
                120.922246,
                15.3145072
              ],
              [
                120.9211096,
                15.3145868
              ],
              [
                120.9202127,
                15.3145102
              ],
              [
                120.9194767,
                15.3142495
              ],
              [
                120.9179167,
                15.3134775
              ],
              [
                120.9169897,
                15.313016
              ],
              [
                120.9164619,
                15.3129373
              ],
              [
                120.9157409,
                15.3131008
              ],
              [
                120.9149641,
                15.3134216
              ],
              [
                120.9139675,
                15.3139969
              ],
              [
                120.9149026,
                15.3139162
              ],
              [
                120.9155291,
                15.3140362
              ],
              [
                120.9163316,
                15.3143715
              ],
              [
                120.9176792,
                15.315249
              ],
              [
                120.9137836,
                15.3194125
              ],
              [
                120.9112095,
                15.3207829
              ],
              [
                120.9107379,
                15.3209146
              ],
              [
                120.9073196,
                15.3206557
              ],
              [
                120.9069087,
                15.3191928
              ],
              [
                120.905756,
                15.3151376
              ],
              [
                120.9056765,
                15.3151797
              ],
              [
                120.9055987,
                15.3152275
              ],
              [
                120.9054891,
                15.3153136
              ],
              [
                120.9053202,
                15.3154377
              ],
              [
                120.9050493,
                15.3156214
              ],
              [
                120.9048883,
                15.3157184
              ],
              [
                120.9047475,
                15.315796
              ],
              [
                120.9046357,
                15.3158666
              ],
              [
                120.9045797,
                15.3156335
              ],
              [
                120.9045331,
                15.3154459
              ],
              [
                120.904482,
                15.3152143
              ],
              [
                120.90433,
                15.3145247
              ],
              [
                120.9040967,
                15.3137245
              ],
              [
                120.9026742,
                15.3136166
              ],
              [
                120.8978033,
                15.3134511
              ],
              [
                120.8944344,
                15.3134304
              ],
              [
                120.8941116,
                15.3133844
              ],
              [
                120.8919631,
                15.3130785
              ],
              [
                120.8912372,
                15.3129751
              ],
              [
                120.8894992,
                15.312437
              ],
              [
                120.8884907,
                15.3117954
              ],
              [
                120.8877611,
                15.3108434
              ],
              [
                120.8860445,
                15.3076976
              ],
              [
                120.8844566,
                15.3054416
              ],
              [
                120.8832121,
                15.3038687
              ],
              [
                120.8818817,
                15.3028959
              ],
              [
                120.8809805,
                15.3025441
              ],
              [
                120.8800792,
                15.302482
              ],
              [
                120.878942,
                15.3027304
              ],
              [
                120.8763671,
                15.3041791
              ],
              [
                120.8743071,
                15.3053382
              ],
              [
                120.8726764,
                15.305897
              ],
              [
                120.8709812,
                15.305897
              ],
              [
                120.8697152,
                15.3053589
              ],
              [
                120.868535,
                15.3043033
              ],
              [
                120.8676338,
                15.3028132
              ],
              [
                120.8656382,
                15.2974733
              ],
              [
                120.8645439,
                15.2945342
              ],
              [
                120.8637714,
                15.2935614
              ]
            ]
          ]
        ]
      }
    }
  ]
}